LEMUR-1                 
1 40044U 14033AL  26186.34870255  .00002834  00000+0  32917-3 0  9991
2 40044  97.7902 335.7525 0048597  20.2635 340.0495 14.85316858648168
LEMUR-2-GREENBERG       
1 42837U 17042N   26186.44570553  .00025227  00000+0  81834-3 0  9998
2 42837  97.3831   6.9935 0007251 301.4286  58.6246 15.31933266491181
LEMUR-2-ANDIS           
1 42838U 17042P   26185.97608768  .00037644  00000+0  10849-2 0  9999
2 42838  97.3686   6.7722 0007172 301.4091  58.6451 15.35609045491185
LEMUR-2-MONSON          
1 42839U 17042Q   26186.29790159  .00023973  00000+0  86312-3 0  9991
2 42839  97.4091   6.7904 0005133 291.2369  68.8323 15.28567422490935
LEMUR-2-FURIAUS         
1 42840U 17042R   26185.99456496  .00030427  00000+0  10187-2 0  9990
2 42840  97.3777   4.4585 0006801   9.0393 351.0969 15.30876648490931
LEMUR-2-PETERG          
1 42841U 17042S   26186.03627196  .00038865  00000+0  11524-2 0  9994
2 42841  97.3997  11.1039 0002785 269.8202  90.2722 15.34726677491173
LEMUR-2-DEMBITZ         
1 42842U 17042T   26186.47175137  .00025981  00000+0  87057-3 0  9996
2 42842  97.3831   7.9707 0005327 318.3139  41.7696 15.30893362491140
LEMUR-2-ZACHARY         
1 42845U 17042W   26186.06085362  .00078238  00000+0  12929-2 0  9992
2 42845  97.3586  18.0961 0002337 301.4836  58.6188 15.51963049491977
LEMUR-2-AMANDA-SVANTE   
1 48269U 21034B   26184.72218815  .00036457  00000+0  10612-2 0  9990
2 48269  97.5753 263.4542 0003869 168.8216 191.3113 15.35322295283594
LEMUR-2-SPECIAL-K       
1 48273U 21034F   26186.21823133  .00307426  00000+0  23721-2 0  9998
2 48273  97.5631 274.4583 0005658 222.9166 137.1655 15.71011365284510
LEMUR-2-EMBRIONOVIS     
1 56970U 23084AQ  26186.35658472  .00021385  00000+0  57222-3 0  9996
2 56970  97.6318 331.2609 0007664 244.9811 115.0638 15.38040861170478
LEMUR-2-DEVERILL-M-T    
1 57391U 23100F   26186.10076815  .00045721  00000+0  11163-2 0  9994
2 57391  99.4455 230.0436 0004918 341.2411  18.8647 15.40706658164006
LEMUR-2-BASS            
1 58259U 23174D   26186.23435480  .00027358  00000+0  60544-3 0  9994
2 58259  97.3843 271.2060 0007985 108.0287 252.1832 15.43743378148144
LEMUR-2-JK0903EM1407    
1 58336U 23174CJ  26186.38868949  .00032761  00000+0  53157-3 0  9992
2 58336  97.3919 277.3837 0004436  64.2078 295.9632 15.52676162148556
LEMUR-2-MJR092620       
1 58340U 23174CN  26186.22650719  .00031311  00000+0  65070-3 0  9991
2 58340  97.3972 276.5958 0006215  62.9314 297.2569 15.45587928148434
LEMUR-2-NIMBUS2000      
1 58899U 24022A   26186.07347341  .00037288  00000+0  90805-3 0  9993
2 58899  97.4091  36.3054 0009679  61.4495 298.7724 15.40789502135023
